{
  "type": "FeatureCollection",
  "features": [
    {
      "type": "Feature",
      "properties": {
        "norad_id": 30059,
        "name": "FENGYUN 1C DEB",
        "group": "fengyun-1c-debris",
        "lat": -75.0348276854831,
        "lon": 123.90786922604718,
        "alt_km": 942.2268021605169,
        "timestamp": "2025-12-09T18:55:17.505377+00:00",
        "meta_object_name": "FENGYUN 1C DEB",
        "meta_object_id": "1999-025PL",
        "meta_epoch": "2025-12-09T11:15:36.028800",
        "meta_mean_motion": 13.45491824,
        "meta_eccentricity": 0.03267517,
        "meta_inclination": 98.8223,
        "meta_ra_of_asc_node": 339.1473,
        "meta_arg_of_pericenter": 311.0019,
        "meta_mean_anomaly": 204.2922,
        "meta_ephemeris_type": 0,
        "meta_classification_type": "U",
        "meta_norad_cat_id": 30059,
        "meta_element_set_no": 999,
        "meta_rev_at_epoch": 92753,
        "meta_bstar": 0.00067567338,
        "meta_mean_motion_dot": 5.14e-06,
        "meta_mean_motion_ddot": 0,
        "tle_line1": "1 30059U 99025PL  25343.46916700  .00000514  00000+0  67567-3 0  9995",
        "tle_line2": "2 30059  98.8223 339.1473 0326751 311.0019 204.2922 13.45491824927538"
      },
      "geometry": {
        "type": "Point",
        "coordinates": [
          123.90786922604718,
          -75.0348276854831
        ]
      }
    },
    {
      "type": "Feature",
      "properties": {
        "norad_id": 30060,
        "name": "FENGYUN 1C DEB",
        "group": "fengyun-1c-debris",
        "lat": 15.564435452665942,
        "lon": 33.31747986158834,
        "alt_km": 1065.374695587031,
        "timestamp": "2025-12-09T18:55:17.505387+00:00",
        "meta_object_name": "FENGYUN 1C DEB",
        "meta_object_id": "1999-025PM",
        "meta_epoch": "2025-12-09T04:25:56.722656",
        "meta_mean_motion": 13.43738637,
        "meta_eccentricity": 0.03443817,
        "meta_inclination": 99.3141,
        "meta_ra_of_asc_node": 210.138,
        "meta_arg_of_pericenter": 80.477,
        "meta_mean_anomaly": 40.7816,
        "meta_ephemeris_type": 0,
        "meta_classification_type": "U",
        "meta_norad_cat_id": 30060,
        "meta_element_set_no": 999,
        "meta_rev_at_epoch": 92195,
        "meta_bstar": 0.0025828437,
        "meta_mean_motion_dot": 2.086e-05,
        "meta_mean_motion_ddot": 0,
        "tle_line1": "1 30060U 99025PM  25343.18468429  .00002086  00000+0  25828-2 0  9995",
        "tle_line2": "2 30060  99.3141 210.1380 0344381  80.4770  40.7816 13.43738637921959"
      },
      "geometry": {
        "type": "Point",
        "coordinates": [
          33.31747986158834,
          15.564435452665942
        ]
      }
    },
    {
      "type": "Feature",
      "properties": {
        "norad_id": 30061,
        "name": "FENGYUN 1C DEB",
        "group": "fengyun-1c-debris",
        "lat": 24.517085702923715,
        "lon": -81.57308720705197,
        "alt_km": 1134.2317199076615,
        "timestamp": "2025-12-09T18:55:17.505397+00:00",
        "meta_object_name": "FENGYUN 1C DEB",
        "meta_object_id": "1999-025PN",
        "meta_epoch": "2025-12-09T05:59:42.079776",
        "meta_mean_motion": 13.46420544,
        "meta_eccentricity": 0.0372659,
        "meta_inclination": 101.8752,
        "meta_ra_of_asc_node": 92.2821,
        "meta_arg_of_pericenter": 258.422,
        "meta_mean_anomaly": 171.1271,
        "meta_ephemeris_type": 0,
        "meta_classification_type": "U",
        "meta_norad_cat_id": 30061,
        "meta_element_set_no": 999,
        "meta_rev_at_epoch": 92052,
        "meta_bstar": 0.0046192,
        "meta_mean_motion_dot": 4.178e-05,
        "meta_mean_motion_ddot": 0,
        "tle_line1": "1 30061U 99025PN  25343.24979259  .00004178  00000+0  46192-2 0  9992",
        "tle_line2": "2 30061 101.8752  92.2821 0372659 258.4220 171.1271 13.46420544920526"
      },
      "geometry": {
        "type": "Point",
        "coordinates": [
          -81.57308720705197,
          24.517085702923715
        ]
      }
    },
    {
      "type": "Feature",
      "properties": {
        "norad_id": 30062,
        "name": "FENGYUN 1C DEB",
        "group": "fengyun-1c-debris",
        "lat": -2.0219210773507057,
        "lon": 172.74791046794053,
        "alt_km": 893.1853563603845,
        "timestamp": "2025-12-09T18:55:17.505407+00:00",
        "meta_object_name": "FENGYUN 1C DEB",
        "meta_object_id": "1999-025PP",
        "meta_epoch": "2025-12-09T11:48:02.149056",
        "meta_mean_motion": 14.07105234,
        "meta_eccentricity": 0.00495789,
        "meta_inclination": 98.7807,
        "meta_ra_of_asc_node": 352.7724,
        "meta_arg_of_pericenter": 57.2881,
        "meta_mean_anomaly": 62.0265,
        "meta_ephemeris_type": 0,
        "meta_classification_type": "U",
        "meta_norad_cat_id": 30062,
        "meta_element_set_no": 999,
        "meta_rev_at_epoch": 96862,
        "meta_bstar": 0.00071819207,
        "meta_mean_motion_dot": 1.172e-05,
        "meta_mean_motion_ddot": 0,
        "tle_line1": "1 30062U 99025PP  25343.49169154  .00001172  00000+0  71819-3 0  9991",
        "tle_line2": "2 30062  98.7807 352.7724 0049578  57.2881  62.0265 14.07105234968625"
      },
      "geometry": {
        "type": "Point",
        "coordinates": [
          172.74791046794053,
          -2.0219210773507057
        ]
      }
    },
    {
      "type": "Feature",
      "properties": {
        "norad_id": 30063,
        "name": "FENGYUN 1C DEB",
        "group": "fengyun-1c-debris",
        "lat": 73.95170215979788,
        "lon": 174.14435832106264,
        "alt_km": 814.6438174318546,
        "timestamp": "2025-12-09T18:55:17.505417+00:00",
        "meta_object_name": "FENGYUN 1C DEB",
        "meta_object_id": "1999-025PQ",
        "meta_epoch": "2025-12-09T12:11:28.817088",
        "meta_mean_motion": 14.15610131,
        "meta_eccentricity": 0.00328659,
        "meta_inclination": 98.5211,
        "meta_ra_of_asc_node": 322.4646,
        "meta_arg_of_pericenter": 143.2975,
        "meta_mean_anomaly": 332.2672,
        "meta_ephemeris_type": 0,
        "meta_classification_type": "U",
        "meta_norad_cat_id": 30063,
        "meta_element_set_no": 999,
        "meta_rev_at_epoch": 97619,
        "meta_bstar": 0.00014300711,
        "meta_mean_motion_dot": 2.4e-06,
        "meta_mean_motion_ddot": 0,
        "tle_line1": "1 30063U 99025PQ  25343.50797242  .00000240  00000+0  14301-3 0  9997",
        "tle_line2": "2 30063  98.5211 322.4646 0032865 143.2975 332.2672 14.15610131976192"
      },
      "geometry": {
        "type": "Point",
        "coordinates": [
          174.14435832106264,
          73.95170215979788
        ]
      }
    },
    {
      "type": "Feature",
      "properties": {
        "norad_id": 30064,
        "name": "FENGYUN 1C DEB",
        "group": "fengyun-1c-debris",
        "lat": -62.43355954858321,
        "lon": 157.95204886036208,
        "alt_km": 878.6078183125755,
        "timestamp": "2025-12-09T18:55:17.505427+00:00",
        "meta_object_name": "FENGYUN 1C DEB",
        "meta_object_id": "1999-025PR",
        "meta_epoch": "2025-12-09T11:45:07.564032",
        "meta_mean_motion": 14.14266517,
        "meta_eccentricity": 0.00665859,
        "meta_inclination": 98.6619,
        "meta_ra_of_asc_node": 354.6403,
        "meta_arg_of_pericenter": 120.5673,
        "meta_mean_anomaly": 42.4022,
        "meta_ephemeris_type": 0,
        "meta_classification_type": "U",
        "meta_norad_cat_id": 30064,
        "meta_element_set_no": 999,
        "meta_rev_at_epoch": 97459,
        "meta_bstar": 0.00027676669,
        "meta_mean_motion_dot": 4.98e-06,
        "meta_mean_motion_ddot": 0,
        "tle_line1": "1 30064U 99025PR  25343.48967088  .00000498  00000+0  27677-3 0  9997",
        "tle_line2": "2 30064  98.6619 354.6403 0066585 120.5673  42.4022 14.14266517974598"
      },
      "geometry": {
        "type": "Point",
        "coordinates": [
          157.95204886036208,
          -62.43355954858321
        ]
      }
    },
    {
      "type": "Feature",
      "properties": {
        "norad_id": 30065,
        "name": "FENGYUN 1C DEB",
        "group": "fengyun-1c-debris",
        "lat": 48.42508231709734,
        "lon": 146.7473777657718,
        "alt_km": 935.6722421300838,
        "timestamp": "2025-12-09T18:55:17.505437+00:00",
        "meta_object_name": "FENGYUN 1C DEB",
        "meta_object_id": "1999-025PS",
        "meta_epoch": "2025-12-09T11:22:46.407936",
        "meta_mean_motion": 13.86913658,
        "meta_eccentricity": 0.01317882,
        "meta_inclination": 98.6837,
        "meta_ra_of_asc_node": 316.5349,
        "meta_arg_of_pericenter": 40.487,
        "meta_mean_anomaly": 320.6004,
        "meta_ephemeris_type": 0,
        "meta_classification_type": "U",
        "meta_norad_cat_id": 30065,
        "meta_element_set_no": 999,
        "meta_rev_at_epoch": 95626,
        "meta_bstar": 0.00029798004,
        "meta_mean_motion_dot": 3.34e-06,
        "meta_mean_motion_ddot": 0,
        "tle_line1": "1 30065U 99025PS  25343.47414824  .00000334  00000+0  29798-3 0  9997",
        "tle_line2": "2 30065  98.6837 316.5349 0131788  40.4870 320.6004 13.86913658956262"
      },
      "geometry": {
        "type": "Point",
        "coordinates": [
          146.7473777657718,
          48.42508231709734
        ]
      }
    }
  ]
}